[{"OBJECT_NAME":"STARLINK-1801","OBJECT_ID":"2020-073AH","EPOCH":"2026-03-10T00:00:02.999808","MEAN_MOTION":15.71605578,"ECCENTRICITY":0.00058448,"INCLINATION":53.0451,"RA_OF_ASC_NODE":196.4487,"ARG_OF_PERICENTER":213.6688,"MEAN_ANOMALY":260.6117,"EPHEMERIS_TYPE":0,"CLASSIFICATION_TYPE":"U","NORAD_CAT_ID":46701,"ELEMENT_SET_NO":999,"REV_AT_EPOCH":590,"BSTAR":4.5163381e-5,"MEAN_MOTION_DOT":5.32e-5,"MEAN_MOTION_DDOT":0},{"OBJECT_NAME":"NAPA-2","OBJECT_ID":"2021-059CN","EPOCH":"2026-03-09T23:29:49.102656","MEAN_MOTION":15.70952391,"ECCENTRICITY":0.00036606,"INCLINATION":97.6849,"RA_OF_ASC_NODE":256.4978,"ARG_OF_PERICENTER":316.466,"MEAN_ANOMALY":43.6312,"EPHEMERIS_TYPE":0,"CLASSIFICATION_TYPE":"U","NORAD_CAT_ID":48963,"ELEMENT_SET_NO":999,"REV_AT_EPOCH":26212,"BSTAR":0.00074486022,"MEAN_MOTION_DOT":0.00093758,"MEAN_MOTION_DDOT":0}]
